{
    "bodies": [
        {
            "name": "TNO-832",
            "mass": 0,
            "semi_major_axis": 434.375,
            "eccentricity": 0.8812500000000001,
            "inclination": 0.35452000431134817,
            "longitude_of_ascending_node": 0.3568906263380233,
            "argument_of_perihelion": 2.07690184486619,
            "mean_anomaly": 0.7412141717515313
        },
        {
            "name": "TNO-833",
            "mass": 0,
            "semi_major_axis": 434.716796875,
            "eccentricity": 0.88134765625,
            "inclination": 0.3549461100857609,
            "longitude_of_ascending_node": 1.036426970212979,
            "argument_of_perihelion": 4.230118884174857,
            "mean_anomaly": 2.840873122160444
        },
        {
            "name": "TNO-834",
            "mass": 0,
            "semi_major_axis": 435.05859375,
            "eccentricity": 0.8814453125,
            "inclination": 0.35537221586017353,
            "longitude_of_ascending_node": 5.4191078384995,
            "argument_of_perihelion": 2.8042602508426353,
            "mean_anomaly": 5.144137133299509
        },
        {
            "name": "TNO-835",
            "mass": 0,
            "semi_major_axis": 435.400390625,
            "eccentricity": 0.88154296875,
            "inclination": 0.35579832163458625,
            "longitude_of_ascending_node": 3.132051548798637,
            "argument_of_perihelion": 4.326381728845845,
            "mean_anomaly": 3.884947445949869
        },
        {
            "name": "TNO-836",
            "mass": 0,
            "semi_major_axis": 435.7421875,
            "eccentricity": 0.8816406250000001,
            "inclination": 0.3562244274089989,
            "longitude_of_ascending_node": 3.840997213843902,
            "argument_of_perihelion": 3.6466404560386003,
            "mean_anomaly": 5.064532668354472
        },
        {
            "name": "TNO-837",
            "mass": 0,
            "semi_major_axis": 436.083984375,
            "eccentricity": 0.88173828125,
            "inclination": 0.35665053318341156,
            "longitude_of_ascending_node": 0.06748098160566093,
            "argument_of_perihelion": 2.3882543448641385,
            "mean_anomaly": 3.639375777877423
        },
        {
            "name": "TNO-838",
            "mass": 0,
            "semi_major_axis": 436.42578125,
            "eccentricity": 0.8818359375,
            "inclination": 0.35707663895782427,
            "longitude_of_ascending_node": 0.09319703786253658,
            "argument_of_perihelion": 2.3659571985825427,
            "mean_anomaly": 0.7131919464296536
        },
        {
            "name": "TNO-839",
            "mass": 0,
            "semi_major_axis": 436.767578125,
            "eccentricity": 0.88193359375,
            "inclination": 0.3575027447322369,
            "longitude_of_ascending_node": 0.06255603994286345,
            "argument_of_perihelion": 3.40179183518345,
            "mean_anomaly": 1.498525068788284
        },
        {
            "name": "TNO-840",
            "mass": 0,
            "semi_major_axis": 437.109375,
            "eccentricity": 0.88203125,
            "inclination": 0.35792885050664963,
            "longitude_of_ascending_node": 4.921288109022154,
            "argument_of_perihelion": 5.207772387536213,
            "mean_anomaly": 5.514269324901534
        },
        {
            "name": "TNO-841",
            "mass": 0,
            "semi_major_axis": 437.451171875,
            "eccentricity": 0.8821289062500001,
            "inclination": 0.3583549562810623,
            "longitude_of_ascending_node": 2.4185111103086867,
            "argument_of_perihelion": 0.24797196484362816,
            "mean_anomaly": 4.3609321122531854
        },
        {
            "name": "TNO-842",
            "mass": 0,
            "semi_major_axis": 437.79296875,
            "eccentricity": 0.8822265625,
            "inclination": 0.35878106205547494,
            "longitude_of_ascending_node": 5.01602584017735,
            "argument_of_perihelion": 1.564571198538995,
            "mean_anomaly": 1.7883947808644158
        },
        {
            "name": "TNO-843",
            "mass": 0,
            "semi_major_axis": 438.134765625,
            "eccentricity": 0.88232421875,
            "inclination": 0.35920716782988765,
            "longitude_of_ascending_node": 2.6630228478130027,
            "argument_of_perihelion": 3.3716296929242353,
            "mean_anomaly": 4.966393262528365
        },
        {
            "name": "TNO-844",
            "mass": 0,
            "semi_major_axis": 438.4765625,
            "eccentricity": 0.882421875,
            "inclination": 0.3596332736043003,
            "longitude_of_ascending_node": 1.331235163091877,
            "argument_of_perihelion": 5.838964681312791,
            "mean_anomaly": 1.4847203532278281
        },
        {
            "name": "TNO-845",
            "mass": 0,
            "semi_major_axis": 438.818359375,
            "eccentricity": 0.88251953125,
            "inclination": 0.360059379378713,
            "longitude_of_ascending_node": 1.1319702671155347,
            "argument_of_perihelion": 2.8240222408385915,
            "mean_anomaly": 2.8878958724652786
        },
        {
            "name": "TNO-846",
            "mass": 0,
            "semi_major_axis": 439.16015625,
            "eccentricity": 0.8826171875000001,
            "inclination": 0.3604854851531257,
            "longitude_of_ascending_node": 4.922519397716241,
            "argument_of_perihelion": 2.6024871764063637,
            "mean_anomaly": 3.321729198635507
        },
        {
            "name": "TNO-847",
            "mass": 0,
            "semi_major_axis": 439.501953125,
            "eccentricity": 0.88271484375,
            "inclination": 0.3609115909275384,
            "longitude_of_ascending_node": 0.9789528078173325,
            "argument_of_perihelion": 3.2228997852455743,
            "mean_anomaly": 4.3798995048276765
        },
        {
            "name": "TNO-848",
            "mass": 0,
            "semi_major_axis": 439.84375,
            "eccentricity": 0.8828125,
            "inclination": 0.36133769670195104,
            "longitude_of_ascending_node": 5.822044677473855,
            "argument_of_perihelion": 4.737077072270764,
            "mean_anomaly": 0.026734616846882317
        },
        {
            "name": "TNO-849",
            "mass": 0,
            "semi_major_axis": 440.185546875,
            "eccentricity": 0.88291015625,
            "inclination": 0.3617638024763637,
            "longitude_of_ascending_node": 4.129967325727572,
            "argument_of_perihelion": 5.198675526952999,
            "mean_anomaly": 1.3489675959852805
        },
        {
            "name": "TNO-850",
            "mass": 0,
            "semi_major_axis": 440.52734375,
            "eccentricity": 0.8830078125,
            "inclination": 0.3621899082507764,
            "longitude_of_ascending_node": 3.6091925916254413,
            "argument_of_perihelion": 5.027676885974584,
            "mean_anomaly": 0.1252140958356629
        },
        {
            "name": "TNO-851",
            "mass": 0,
            "semi_major_axis": 440.869140625,
            "eccentricity": 0.8831054687500001,
            "inclination": 0.36261601402518906,
            "longitude_of_ascending_node": 2.4985094309768265,
            "argument_of_perihelion": 2.0371450428711197,
            "mean_anomaly": 3.8773142560092855
        },
        {
            "name": "TNO-852",
            "mass": 0,
            "semi_major_axis": 441.2109375,
            "eccentricity": 0.883203125,
            "inclination": 0.36304211979960177,
            "longitude_of_ascending_node": 1.9708296992401764,
            "argument_of_perihelion": 0.19080955169884117,
            "mean_anomaly": 0.2715272383762039
        },
        {
            "name": "TNO-853",
            "mass": 0,
            "semi_major_axis": 441.552734375,
            "eccentricity": 0.88330078125,
            "inclination": 0.3634682255740144,
            "longitude_of_ascending_node": 1.3560167396848384,
            "argument_of_perihelion": 4.506069350091881,
            "mean_anomaly": 4.50353532979514
        },
        {
            "name": "TNO-854",
            "mass": 0,
            "semi_major_axis": 441.89453125,
            "eccentricity": 0.8833984375,
            "inclination": 0.3638943313484271,
            "longitude_of_ascending_node": 0.969565609960737,
            "argument_of_perihelion": 2.6455808413702364,
            "mean_anomaly": 0.3067499553456521
        },
        {
            "name": "TNO-855",
            "mass": 0,
            "semi_major_axis": 442.236328125,
            "eccentricity": 0.88349609375,
            "inclination": 0.3643204371228398,
            "longitude_of_ascending_node": 3.8803287691044654,
            "argument_of_perihelion": 3.5904384401655274,
            "mean_anomaly": 4.601803036050829
        },
        {
            "name": "TNO-856",
            "mass": 0,
            "semi_major_axis": 442.578125,
            "eccentricity": 0.8835937500000001,
            "inclination": 0.36474654289725245,
            "longitude_of_ascending_node": 2.7207341450229987,
            "argument_of_perihelion": 2.238164705589605,
            "mean_anomaly": 0.4193245200195665
        },
        {
            "name": "TNO-857",
            "mass": 0,
            "semi_major_axis": 442.919921875,
            "eccentricity": 0.88369140625,
            "inclination": 0.36517264867166516,
            "longitude_of_ascending_node": 0.6110682502012137,
            "argument_of_perihelion": 4.381903310588708,
            "mean_anomaly": 5.2596469839893585
        }
    ]
}